[{"OBJECT_NAME":"OBJECT B","OBJECT_ID":"2024-205B","EPOCH":"2026-03-09T23:46:05.115936","MEAN_MOTION":15.28158697,"ECCENTRICITY":0.00105957,"INCLINATION":97.4192,"RA_OF_ASC_NODE":146.9311,"ARG_OF_PERICENTER":34.0947,"MEAN_ANOMALY":326.0972,"EPHEMERIS_TYPE":0,"CLASSIFICATION_TYPE":"U","NORAD_CAT_ID":61895,"ELEMENT_SET_NO":999,"REV_AT_EPOCH":7352,"BSTAR":0.00054154807,"MEAN_MOTION_DOT":0.00014827,"MEAN_MOTION_DDOT":0},{"OBJECT_NAME":"STARLINK-33753","OBJECT_ID":"2025-069L","EPOCH":"2026-03-09T11:34:37.879968","MEAN_MOTION":15.30189612,"ECCENTRICITY":0.00011372,"INCLINATION":53.158,"RA_OF_ASC_NODE":143.3933,"ARG_OF_PERICENTER":91.3474,"MEAN_ANOMALY":268.7657,"EPHEMERIS_TYPE":0,"CLASSIFICATION_TYPE":"U","NORAD_CAT_ID":63443,"ELEMENT_SET_NO":999,"REV_AT_EPOCH":5336,"BSTAR":0.0005365921,"MEAN_MOTION_DOT":0.00015561,"MEAN_MOTION_DDOT":0}]
